{
  "links" : {
    "next" : "https://api.nasa.gov/neo/rest/v1/feed?start_date=2012-06-16&end_date=2012-06-16&detailed=true&api_key=t0TVs3DtDT2H8Oy2Zy8m2eVrNsAVKAexjcZXUckd",
    "prev" : "https://api.nasa.gov/neo/rest/v1/feed?start_date=2012-06-14&end_date=2012-06-14&detailed=true&api_key=t0TVs3DtDT2H8Oy2Zy8m2eVrNsAVKAexjcZXUckd",
    "self" : "https://api.nasa.gov/neo/rest/v1/feed?start_date=2012-06-15&end_date=2012-06-15&detailed=true&api_key=t0TVs3DtDT2H8Oy2Zy8m2eVrNsAVKAexjcZXUckd"
  },
  "element_count" : 8,
  "near_earth_objects" : {
    "2012-06-15" : [ {
      "links" : {
        "self" : "https://api.nasa.gov/neo/rest/v1/neo/3605566?api_key=t0TVs3DtDT2H8Oy2Zy8m2eVrNsAVKAexjcZXUckd"
      },
      "neo_reference_id" : "3605566",
      "name" : "(2012 LP1)",
      "nasa_jpl_url" : "http://ssd.jpl.nasa.gov/sbdb.cgi?sstr=3605566",
      "absolute_magnitude_h" : 23.4,
      "estimated_diameter" : {
        "kilometers" : {
          "estimated_diameter_min" : 0.0555334912,
          "estimated_diameter_max" : 0.1241766613
        },
        "meters" : {
          "estimated_diameter_min" : 55.5334911581,
          "estimated_diameter_max" : 124.1766612574
        },
        "miles" : {
          "estimated_diameter_min" : 0.0345069009,
          "estimated_diameter_max" : 0.0771597762
        },
        "feet" : {
          "estimated_diameter_min" : 182.1964991311,
          "estimated_diameter_max" : 407.4037573197
        }
      },
      "is_potentially_hazardous_asteroid" : false,
      "close_approach_data" : [ {
        "close_approach_date" : "2012-06-15",
        "epoch_date_close_approach" : 1339743600000,
        "relative_velocity" : {
          "kilometers_per_second" : "11.708677973",
          "kilometers_per_hour" : "42151.2407027064",
          "miles_per_hour" : "26191.1417577455"
        },
        "miss_distance" : {
          "astronomical" : "0.085183576",
          "lunar" : "33.1364097595",
          "kilometers" : "12743282",
          "miles" : "7918308"
        },
        "orbiting_body" : "Earth"
      } ],
      "orbital_data" : {
        "orbit_id" : "7",
        "orbit_determination_date" : "2017-04-06 08:49:38",
        "orbit_uncertainty" : "9",
        "minimum_orbit_intersection" : ".0652372",
        "jupiter_tisserand_invariant" : "4.402",
        "epoch_osculation" : "2456090.5",
        "eccentricity" : ".3299135881960388",
        "semi_major_axis" : "1.509983140549148",
        "inclination" : "20.00432794470924",
        "ascending_node_longitude" : "76.90773549300906",
        "orbital_period" : "677.7297877697506",
        "perihelion_distance" : "1.011819184535055",
        "perihelion_argument" : "224.5838771108483",
        "aphelion_distance" : "2.008147096563241",
        "perihelion_time" : "2456130.918079425950",
        "mean_anomaly" : "338.5305163563427",
        "mean_motion" : ".5311851515110106",
        "equinox" : "J2000"
      }
    }, {
      "links" : {
        "self" : "https://api.nasa.gov/neo/rest/v1/neo/3775157?api_key=t0TVs3DtDT2H8Oy2Zy8m2eVrNsAVKAexjcZXUckd"
      },
      "neo_reference_id" : "3775157",
      "name" : "(2017 KS34)",
      "nasa_jpl_url" : "http://ssd.jpl.nasa.gov/sbdb.cgi?sstr=3775157",
      "absolute_magnitude_h" : 25.545,
      "estimated_diameter" : {
        "kilometers" : {
          "estimated_diameter_min" : 0.0206802115,
          "estimated_diameter_max" : 0.0462423588
        },
        "meters" : {
          "estimated_diameter_min" : 20.6802115266,
          "estimated_diameter_max" : 46.2423587626
        },
        "miles" : {
          "estimated_diameter_min" : 0.0128500837,
          "estimated_diameter_max" : 0.0287336607
        },
        "feet" : {
          "estimated_diameter_min" : 67.8484651851,
          "estimated_diameter_max" : 151.7137803228
        }
      },
      "is_potentially_hazardous_asteroid" : false,
      "close_approach_data" : [ {
        "close_approach_date" : "2012-06-15",
        "epoch_date_close_approach" : 1339743600000,
        "relative_velocity" : {
          "kilometers_per_second" : "4.275665052",
          "kilometers_per_hour" : "15392.3941871634",
          "miles_per_hour" : "9564.2351547961"
        },
        "miss_distance" : {
          "astronomical" : "0.1174979384",
          "lunar" : "45.7066955566",
          "kilometers" : "17577442",
          "miles" : "10922116"
        },
        "orbiting_body" : "Earth"
      } ],
      "orbital_data" : {
        "orbit_id" : "3",
        "orbit_determination_date" : "2017-06-17 06:18:12",
        "orbit_uncertainty" : "7",
        "minimum_orbit_intersection" : ".0751103",
        "jupiter_tisserand_invariant" : "4.719",
        "epoch_osculation" : "2458000.5",
        "eccentricity" : ".2268390736424938",
        "semi_major_axis" : "1.402967516628614",
        "inclination" : "2.918730519562027",
        "ascending_node_longitude" : "104.2714008862957",
        "orbital_period" : "606.9736677378863",
        "perihelion_distance" : "1.084719664806069",
        "perihelion_argument" : "147.6762200632691",
        "aphelion_distance" : "1.721215368451158",
        "perihelion_time" : "2457907.076944355545",
        "mean_anomaly" : "55.40981729462345",
        "mean_motion" : ".5931064544227663",
        "equinox" : "J2000"
      }
    }, {
      "links" : {
        "self" : "https://api.nasa.gov/neo/rest/v1/neo/2365449?api_key=t0TVs3DtDT2H8Oy2Zy8m2eVrNsAVKAexjcZXUckd"
      },
      "neo_reference_id" : "2365449",
      "name" : "365449 (2010 NJ1)",
      "nasa_jpl_url" : "http://ssd.jpl.nasa.gov/sbdb.cgi?sstr=2365449",
      "absolute_magnitude_h" : 20.5,
      "estimated_diameter" : {
        "kilometers" : {
          "estimated_diameter_min" : 0.2111324448,
          "estimated_diameter_max" : 0.4721064988
        },
        "meters" : {
          "estimated_diameter_min" : 211.1324447897,
          "estimated_diameter_max" : 472.1064988055
        },
        "miles" : {
          "estimated_diameter_min" : 0.1311915784,
          "estimated_diameter_max" : 0.2933532873
        },
        "feet" : {
          "estimated_diameter_min" : 692.6917701639,
          "estimated_diameter_max" : 1548.9058855411
        }
      },
      "is_potentially_hazardous_asteroid" : false,
      "close_approach_data" : [ {
        "close_approach_date" : "2012-06-15",
        "epoch_date_close_approach" : 1339743600000,
        "relative_velocity" : {
          "kilometers_per_second" : "11.8694340124",
          "kilometers_per_hour" : "42729.9624445464",
          "miles_per_hour" : "26550.7369422794"
        },
        "miss_distance" : {
          "astronomical" : "0.2994052199",
          "lunar" : "116.4686279297",
          "kilometers" : "44790384",
          "miles" : "27831454"
        },
        "orbiting_body" : "Earth"
      } ],
      "orbital_data" : {
        "orbit_id" : "57",
        "orbit_determination_date" : "2017-07-28 06:19:26",
        "orbit_uncertainty" : "1",
        "minimum_orbit_intersection" : ".154706",
        "jupiter_tisserand_invariant" : "6.085",
        "epoch_osculation" : "2458000.5",
        "eccentricity" : ".5405178023526714",
        "semi_major_axis" : ".968377581781579",
        "inclination" : "11.22419547692227",
        "ascending_node_longitude" : "128.2836974696954",
        "orbital_period" : "348.0691375405533",
        "perihelion_distance" : ".4449522594294055",
        "perihelion_argument" : "358.5166597457216",
        "aphelion_distance" : "1.491802904133752",
        "perihelion_time" : "2458091.374780160312",
        "mean_anomaly" : "266.010279771211",
        "mean_motion" : "1.034277277622917",
        "equinox" : "J2000"
      }
    } ]
  }
}